NORAD_CAT_ID,OBJECT_NAME,OBJECT_TYPE,EPOCH,MEAN_MOTION,ECCENTRICITY,INCLINATION,RA_OF_ASC_NODE,ARG_OF_PERICENTER,MEAN_ANOMALY,BSTAR,MEAN_MOTION_DOT,MEAN_MOTION_DDOT,TLE_LINE0,TLE_LINE1,TLE_LINE2,SEMIMAJOR_AXIS,PERIOD,APOGEE,PERIGEE,DECAYED
52460.0,STARLINK-3865,PAYLOAD,2023-11-01 04:53:24,15.08842427,0.0001829,53.2177,317.4548,93.7749,266.3452,0.00026106,3.869e-05,0.0,0 STARLINK-3865,1 52460U 22049K   23305.20375576  .00003869  00000-0  26106-3 0  9996,2 52460  53.2177 317.4548 0001829  93.7749 266.3452 15.08842427 82655,6917.873,95.437,541.003,538.473,0.0
52460.0,STARLINK-3865,PAYLOAD,2023-11-01 11:14:56,15.08850971,0.0001859,53.2175,316.2653,90.1541,269.9664,0.00049106,7.538e-05,0.0,0 STARLINK-3865,1 52460U 22049K   23305.46871343  .00007538  00000-0  49106-3 0  9999,2 52460  53.2175 316.2653 0001859  90.1541 269.9664 15.08850971 82535,6917.847,95.437,540.998,538.426,0.0
52460.0,STARLINK-3865,PAYLOAD,2023-11-01 17:36:29,15.08845264,0.0001729,53.2167,315.0732,86.0261,274.0929,0.00026059,3.862e-05,0.0,0 STARLINK-3865,1 52460U 22049K   23305.73367339  .00003862  00000-0  26059-3 0  9992,2 52460  53.2167 315.0732 0001729  86.0261 274.0929 15.08845264 82574,6917.864,95.437,540.925,538.533,0.0
52460.0,STARLINK-3865,PAYLOAD,2023-11-02 04:44:11,15.08841541,0.0002709,53.2173,312.9926,80.2934,279.8364,0.00016112,2.277e-05,0.0,0 STARLINK-3865,1 52460U 22049K   23306.19735889  .00002277  00000-0  16112-3 0  9990,2 52460  53.2173 312.9926 0002709  80.2934 279.8364 15.08841541 82800,6917.876,95.437,541.615,537.867,0.0
52460.0,STARLINK-3865,PAYLOAD,2023-11-02 11:05:44,15.08847118,0.000216,53.2182,311.8048,84.3895,275.7343,0.00020228,2.933e-05,0.0,0 STARLINK-3865,1 52460U 22049K   23306.46231506  .00002933  00000-0  20228-3 0  9999,2 52460  53.2182 311.8048 0002160  84.3895 275.7343 15.08847118 82689,6917.859,95.437,541.218,538.229,0.0
52460.0,STARLINK-3865,PAYLOAD,2023-11-02 17:27:16,15.08840086,0.0001953,53.2171,310.614,90.0473,270.0743,2.3685e-05,8.9e-07,0.0,0 STARLINK-3865,1 52460U 22049K   23306.72727618  .00000089  00000-0  23685-4 0  9993,2 52460  53.2171 310.6140 0001953  90.0473 270.0743 15.08840086 82726,6917.88,95.438,541.096,538.394,0.0
52460.0,STARLINK-3865,PAYLOAD,2023-11-03 09:21:07,15.0884737,0.0002044,53.2177,307.6394,92.5679,267.5548,0.00014327,1.993e-05,0.0,0 STARLINK-3865,1 52460U 22049K   23307.38967272  .00001993  00000-0  14327-3 0  9995,2 52460  53.2177 307.6394 0002044  92.5679 267.5548 15.08847370 82981,6917.858,95.437,541.137,538.309,0.0
52460.0,STARLINK-3865,PAYLOAD,2023-11-04 04:25:45,15.08838987,0.0002146,53.219,304.0717,90.5695,269.5543,0.00010416,1.37e-05,0.0,0 STARLINK-3865,1 52460U 22049K   23308.18455925  .00001370  00000-0  10416-3 0  9995,2 52460  53.2190 304.0717 0002146  90.5695 269.5543 15.08838987 83101,6917.883,95.438,541.233,538.264,0.0
52460.0,STARLINK-3865,PAYLOAD,2023-11-04 07:36:32,15.08840194,0.0001893,53.2171,303.4788,97.3251,262.7956,8.2829e-05,1.03e-05,0.0,0 STARLINK-3865,1 52460U 22049K   23308.31703838  .00001030  00000-0  82829-4 0  9990,2 52460  53.2171 303.4788 0001893  97.3251 262.7956 15.08840194 82961,6917.88,95.438,541.054,538.435,0.0
52460.0,STARLINK-3865,PAYLOAD,2023-11-04 17:08:51,15.08834658,0.0001733,53.2167,301.6931,95.3828,264.7361,3.761e-05,3.1e-06,0.0,0 STARLINK-3865,1 52460U 22049K   23308.71448180  .00000310  00000-0  37610-4 0  9998,2 52460  53.2167 301.6931 0001733  95.3828 264.7361 15.08834658 83025,6917.897,95.438,540.961,538.563,0.0
52460.0,STARLINK-3865,PAYLOAD,2023-11-05 05:51:56,15.08849426,0.0001927,53.217,299.3155,90.067,270.0543,0.00035712,5.401e-05,0.0,0 STARLINK-3865,1 52460U 22049K   23309.24439891  .00005401  00000-0  35712-3 0  9992,2 52460  53.2170 299.3155 0001927  90.0670 270.0543 15.08849426 83269,6917.852,95.437,541.05,538.384,0.0
52460.0,STARLINK-3865,PAYLOAD,2023-11-05 16:59:37,15.08852763,0.0001749,53.216,297.2345,92.0413,268.078,0.00040632,6.187e-05,0.0,0 STARLINK-3865,1 52460U 22049K   23309.70807508  .00006187  00000-0  40632-3 0  9996,2 52460  53.2160 297.2345 0001749  92.0413 268.0780 15.08852763 83173,6917.841,95.437,540.916,538.496,0.0
52460.0,STARLINK-3865,PAYLOAD,2023-11-06 05:42:43,15.08813004,0.0001657,53.2163,294.8547,92.6992,267.419,-0.00086035,-0.00013944,0.0,0 STARLINK-3865,1 52460U 22049K   23310.23800448 -.00013944  00000-0 -86035-3 0  9990,2 52460  53.2163 294.8547 0001657  92.6992 267.4190 15.08813004 83419,6917.963,95.439,540.974,538.682,0.0
52460.0,STARLINK-3865,PAYLOAD,2023-11-07 08:44:19,15.0882298,0.0001448,53.2173,289.7996,90.5202,269.5956,0.0014645,0.00023085,0.0,0 STARLINK-3865,1 52460U 22049K   23311.36410981  .00023085  00000-0  14645-2 0  9996,2 52460  53.2173 289.7996 0001448  90.5202 269.5956 15.08822980 83584,6917.932,95.439,540.799,538.796,0.0
52460.0,STARLINK-3865,PAYLOAD,2023-11-08 02:13:32,15.0887697,0.0001349,53.2175,286.5297,90.6478,269.4668,0.0019387,0.00030733,0.0,0 STARLINK-3865,1 52460U 22049K   23312.09274262  .00030733  00000-0  19387-2 0  9993,2 52460  53.2175 286.5297 0001349  90.6478 269.4668 15.08876970 83690,6917.767,95.435,540.566,538.699,0.0
52460.0,STARLINK-3865,PAYLOAD,2023-11-08 08:35:04,15.08901733,0.0001385,53.217,285.3398,92.0785,268.0365,0.0022295,0.00035433,0.0,0 STARLINK-3865,1 52460U 22049K   23312.35769257  .00035433  00000-0  22295-2 0  9999,2 52460  53.2170 285.3398 0001385  92.0785 268.0365 15.08901733 83573,6917.692,95.434,540.515,538.599,0.0
52460.0,STARLINK-3865,PAYLOAD,2023-11-09 03:39:41,15.08889726,0.0001533,53.2167,281.7711,116.4696,243.6453,0.0018119,0.00028706,0.0,0 STARLINK-3865,1 52460U 22049K   23313.15255790  .00028706  00000-0  18119-2 0  9995,2 52460  53.2167 281.7711 0001533 116.4696 243.6453 15.08889726 83850,6917.728,95.434,540.654,538.533,0.0
52460.0,STARLINK-3865,PAYLOAD,2023-11-09 05:15:04,15.08891298,0.0001476,53.2167,281.4737,112.8274,247.2874,0.001975,0.00031328,0.0,0 STARLINK-3865,1 52460U 22049K   23313.21879646  .00031328  00000-0  19750-2 0  9990,2 52460  53.2167 281.4737 0001476 112.8274 247.2874 15.08891298 83701,6917.724,95.434,540.61,538.568,0.0
52460.0,STARLINK-3865,PAYLOAD,2023-11-10 03:30:27,15.08851244,0.0001811,53.2165,277.3101,133.6563,226.4579,0.0010711,0.00016805,0.0,0 STARLINK-3865,1 52460U 22049K   23314.14615680  .00016805  00000-0  10711-2 0  9990,2 52460  53.2165 277.3101 0001811 133.6563 226.4579 15.08851244 84005,6917.846,95.437,540.964,538.458,0.0
52460.0,STARLINK-3865,PAYLOAD,2023-11-10 06:41:14,15.08835875,0.0001383,53.2159,276.715,95.369,264.746,0.0005888,9.094e-05,0.0,0 STARLINK-3865,1 52460U 22049K   23314.27863991  .00009094  00000-0  58880-3 0  9996,2 52460  53.2159 276.7150 0001383  95.3690 264.7460 15.08835875 84022,6917.893,95.438,540.715,538.801,0.0
52460.0,STARLINK-3865,PAYLOAD,2023-11-10 14:38:10,15.08835334,0.0001497,53.2161,275.2279,86.1551,273.9612,0.00030025,4.493e-05,0.0,0 STARLINK-3865,1 52460U 22049K   23314.60984220  .00004493  00000-0  30025-3 0  9991,2 52460  53.2161 275.2279 0001497  86.1551 273.9612 15.08835334 83919,6917.895,95.438,540.795,538.724,0.0
52460.0,STARLINK-3865,PAYLOAD,2023-11-11 03:21:15,15.08838778,0.0001678,53.2172,272.8496,91.334,268.7844,-4.8616e-05,-1.062e-05,0.0,0 STARLINK-3865,1 52460U 22049K   23315.13976406 -.00001062  00000-0 -48616-4 0  9994,2 52460  53.2172 272.8496 0001678  91.3340 268.7844 15.08838778 84151,6917.884,95.438,540.91,538.588,0.0
52460.0,STARLINK-3865,PAYLOAD,2023-11-11 14:28:57,15.08833807,0.0001858,53.2175,270.7678,86.227,273.8934,-1.4278e-05,-5.15e-06,0.0,0 STARLINK-3865,1 52460U 22049K   23315.60344832 -.00000515  00000-0 -14278-4 0  9997,2 52460  53.2175 270.7678 0001858  86.2270 273.8934 15.08833807 84063,6917.899,95.438,541.05,538.479,0.0
52460.0,STARLINK-3865,PAYLOAD,2023-11-11 20:50:30,15.08831998,0.0001796,53.2172,269.5803,79.6084,280.511,9.2267e-05,1.18e-05,0.0,0 STARLINK-3865,1 52460U 22049K   23315.86841150  .00001180  00000-0  92267-4 0  9991,2 52460  53.2172 269.5803 0001796  79.6084 280.5110 15.08831998 84101,6917.905,95.438,541.012,538.527,0.0
52460.0,STARLINK-3865,PAYLOAD,2023-11-12 03:12:03,15.0883263,0.0001313,53.2179,268.3882,84.0972,276.0169,8.7818e-05,1.11e-05,0.0,0 STARLINK-3865,1 52460U 22049K   23316.13337166  .00001110  00000-0  87818-4 0  9998,2 52460  53.2179 268.3882 0001313  84.0972 276.0169 15.08832630 84303,6917.903,95.438,540.676,538.86,0.0
52460.0,STARLINK-3865,PAYLOAD,2023-11-12 04:47:26,15.088411,0.0001579,53.2168,268.0919,84.5367,275.5805,0.00021805,3.184e-05,0.0,0 STARLINK-3865,1 52460U 22049K   23316.19960895  .00003184  00000-0  21805-3 0  9991,2 52460  53.2168 268.0919 0001579  84.5367 275.5805 15.08841100 84310,6917.877,95.437,540.834,538.65,0.0
52460.0,STARLINK-3865,PAYLOAD,2023-11-13 06:13:35,15.0886214,0.0001665,53.2167,263.3327,93.093,267.0252,0.00051672,7.95e-05,0.0,0 STARLINK-3865,1 52460U 22049K   23317.25944079  .00007950  00000-0  51672-3 0  9995,2 52460  53.2167 263.3327 0001665  93.0930 267.0252 15.08862140 84473,6917.813,95.436,540.83,538.526,0.0
52460.0,STARLINK-3865,PAYLOAD,2023-11-13 14:10:32,15.08841524,0.0001944,53.2182,261.8468,81.773,278.3482,0.00012897,1.765e-05,0.0,0 STARLINK-3865,1 52460U 22049K   23317.59064885  .00001765  00000-0  12897-3 0  9994,2 52460  53.2182 261.8468 0001944  81.7730 278.3482 15.08841524 84520,6917.876,95.437,541.086,538.396,0.0
52460.0,STARLINK-3865,PAYLOAD,2023-11-13 20:32:04,15.08841686,0.0002061,53.2173,260.659,79.5915,280.531,0.00011282,1.508e-05,0.0,0 STARLINK-3865,1 52460U 22049K   23317.85560858  .00001508  00000-0  11282-3 0  9996,2 52460  53.2173 260.6590 0002061  79.5915 280.5310 15.08841686 84405,6917.875,95.437,541.166,538.314,0.0
52460.0,STARLINK-3865,PAYLOAD,2023-11-14 06:04:23,15.08845653,0.0001767,53.2177,258.8726,92.762,267.3574,0.00017365,2.477e-05,0.0,0 STARLINK-3865,1 52460U 22049K   23318.25304655  .00002477  00000-0  17365-3 0  9996,2 52460  53.2177 258.8726 0001767  92.7620 267.3574 15.08845653 84460,6917.863,95.437,540.95,538.506,0.0
